{
  "type": "FeatureCollection",
  "features": [
    {
      "type": "Feature",
      "properties": {
        "norad_id": 67071,
        "name": "KZ-11 R/B",
        "group": "last-30-days",
        "lat": 22.991463155007516,
        "lon": 115.13260663390574,
        "alt_km": 405.71366216515617,
        "timestamp": "2025-12-15T15:53:18.663874+00:00",
        "meta_object_name": "KZ-11 R/B",
        "meta_object_id": "2025-296C",
        "meta_epoch": "2025-12-13T03:57:12.269376",
        "meta_mean_motion": 14.41614344,
        "meta_eccentricity": 0.08603054,
        "meta_inclination": 41.3405,
        "meta_ra_of_asc_node": 99.1629,
        "meta_arg_of_pericenter": 320.0027,
        "meta_mean_anomaly": 34.035,
        "meta_ephemeris_type": 0,
        "meta_classification_type": "U",
        "meta_norad_cat_id": 67071,
        "meta_element_set_no": 999,
        "meta_rev_at_epoch": 2,
        "meta_bstar": 0.00012972566,
        "meta_mean_motion_dot": 0.00801494,
        "meta_mean_motion_ddot": 4.646094e-06,
        "tle_line1": "1 67071U 25296C   25347.16472534  .00801494  46461-5  12973-3 0  9995",
        "tle_line2": "2 67071  41.3405  99.1629 0860305 320.0027  34.0350 14.41614344    21"
      },
      "geometry": {
        "type": "Point",
        "coordinates": [
          115.13260663390574,
          22.991463155007516
        ]
      }
    },
    {
      "type": "Feature",
      "properties": {
        "norad_id": 67072,
        "name": "ELECTRON R/B",
        "group": "last-30-days",
        "lat": -30.810879775191726,
        "lon": -47.2159499470842,
        "alt_km": 187.9780530016742,
        "timestamp": "2025-12-15T15:53:18.663883+00:00",
        "meta_object_name": "ELECTRON R/B",
        "meta_object_id": "2025-297A",
        "meta_epoch": "2025-12-14T22:11:05.053056",
        "meta_mean_motion": 15.71495264,
        "meta_eccentricity": 0.02597271,
        "meta_inclination": 97.4828,
        "meta_ra_of_asc_node": 136.487,
        "meta_arg_of_pericenter": 224.2905,
        "meta_mean_anomaly": 133.7317,
        "meta_ephemeris_type": 0,
        "meta_classification_type": "U",
        "meta_norad_cat_id": 67072,
        "meta_element_set_no": 999,
        "meta_rev_at_epoch": 13,
        "meta_bstar": 0.0012785881,
        "meta_mean_motion_dot": 0.01560771,
        "meta_mean_motion_ddot": 2.254797e-06,
        "tle_line1": "1 67072U 25297A   25348.92436404  .01560771  22548-5  12786-2 0  9990",
        "tle_line2": "2 67072  97.4828 136.4870 0259727 224.2905 133.7317 15.71495264   130"
      },
      "geometry": {
        "type": "Point",
        "coordinates": [
          -47.2159499470842,
          -30.810879775191726
        ]
      }
    },
    {
      "type": "Feature",
      "properties": {
        "norad_id": 67073,
        "name": "RAISE-4",
        "group": "last-30-days",
        "lat": -45.427204875919436,
        "lon": -50.536480805686935,
        "alt_km": 550.8749096437368,
        "timestamp": "2025-12-15T15:53:18.663893+00:00",
        "meta_object_name": "RAISE-4",
        "meta_object_id": "2025-297B",
        "meta_epoch": "2025-12-14T22:57:15.329952",
        "meta_mean_motion": 15.07143687,
        "meta_eccentricity": 0.00119161,
        "meta_inclination": 97.4849,
        "meta_ra_of_asc_node": 136.4463,
        "meta_arg_of_pericenter": 312.6062,
        "meta_mean_anomaly": 47.416,
        "meta_ephemeris_type": 0,
        "meta_classification_type": "U",
        "meta_norad_cat_id": 67073,
        "meta_element_set_no": 999,
        "meta_rev_at_epoch": 12,
        "meta_bstar": 0.00041310376,
        "meta_mean_motion_dot": 6.159e-05,
        "meta_mean_motion_ddot": 0,
        "tle_line1": "1 67073U 25297B   25348.95642743  .00006159  00000+0  41310-3 0  9992",
        "tle_line2": "2 67073  97.4849 136.4463 0011916 312.6062  47.4160 15.07143687   128"
      },
      "geometry": {
        "type": "Point",
        "coordinates": [
          -50.536480805686935,
          -45.427204875919436
        ]
      }
    },
    {
      "type": "Feature",
      "properties": {
        "norad_id": 67074,
        "name": "ELECTRON KICK STAGE R/B",
        "group": "last-30-days",
        "lat": 63.96454929273415,
        "lon": -27.14097569196308,
        "alt_km": 510.71220264928706,
        "timestamp": "2025-12-15T15:53:18.663903+00:00",
        "meta_object_name": "ELECTRON KICK STAGE R/B",
        "meta_object_id": "2025-297C",
        "meta_epoch": "2025-12-14T22:22:53.137344",
        "meta_mean_motion": 15.53992131,
        "meta_eccentricity": 0.02085624,
        "meta_inclination": 97.482,
        "meta_ra_of_asc_node": 136.4892,
        "meta_arg_of_pericenter": 261.54,
        "meta_mean_anomaly": 96.2167,
        "meta_ephemeris_type": 0,
        "meta_classification_type": "U",
        "meta_norad_cat_id": 67074,
        "meta_element_set_no": 999,
        "meta_rev_at_epoch": 12,
        "meta_bstar": 0.0012691251,
        "meta_mean_motion_dot": 0.00219816,
        "meta_mean_motion_ddot": 1.4512242e-05,
        "tle_line1": "1 67074U 25297C   25348.93255946  .00219816  14512-4  12691-2 0  9999",
        "tle_line2": "2 67074  97.4820 136.4892 0208562 261.5400  96.2167 15.53992131   123"
      },
      "geometry": {
        "type": "Point",
        "coordinates": [
          -27.14097569196308,
          63.96454929273415
        ]
      }
    }
  ]
}